{
"type": "FeatureCollection",
"name": "GCP_Selected",
"crs": { "type": "name", "properties": { "name": "urn:ogc:def:crs:OGC:1.3:CRS84" } },
"xy_coordinate_resolution": 1e-15,
"features": [
{ "type": "Feature", "properties": { "Plotnumber": 1, "n": 11, "mean_x": 11.909090909090908 }, "geometry": { "type": "MultiPoint", "coordinates": [ [ 102.603909, 12.203196 ] ] } },
{ "type": "Feature", "properties": { "Plotnumber": 2, "n": 11, "mean_x": 12.363636363636363 }, "geometry": { "type": "MultiPoint", "coordinates": [ [ 102.604285, 12.203778 ] ] } },
{ "type": "Feature", "properties": { "Plotnumber": 3, "n": 30, "mean_x": 13.033333333333333 }, "geometry": { "type": "MultiPoint", "coordinates": [ [ 102.605149, 12.204443 ] ] } },
{ "type": "Feature", "properties": { "Plotnumber": 4, "n": 10, "mean_x": 14.7 }, "geometry": { "type": "MultiPoint", "coordinates": [ [ 102.605807, 12.205145 ] ] } },
{ "type": "Feature", "properties": { "Plotnumber": 5, "n": 13, "mean_x": 15.692307692307692 }, "geometry": { "type": "MultiPoint", "coordinates": [ [ 102.606176, 12.205909 ] ] } },
{ "type": "Feature", "properties": { "Plotnumber": 6, "n": 21, "mean_x": 13.238095238095237 }, "geometry": { "type": "MultiPoint", "coordinates": [ [ 102.606522, 12.206723 ] ] } },
{ "type": "Feature", "properties": { "Plotnumber": 7, "n": 18, "mean_x": 12.333333333333334 }, "geometry": { "type": "MultiPoint", "coordinates": [ [ 102.60694, 12.20764 ] ] } },
{ "type": "Feature", "properties": { "Plotnumber": 8, "n": 13, "mean_x": 22.230769230769226 }, "geometry": { "type": "MultiPoint", "coordinates": [ [ 102.607198, 12.208473 ] ] } },
{ "type": "Feature", "properties": { "Plotnumber": 9, "n": 14, "mean_x": 6.4285714285714297 }, "geometry": { "type": "MultiPoint", "coordinates": [ [ 102.607612, 12.20949 ] ] } },
{ "type": "Feature", "properties": { "Plotnumber": 10, "n": 15, "mean_x": 5.4666666666666677 }, "geometry": { "type": "MultiPoint", "coordinates": [ [ 102.607962, 12.210249 ] ] } },
{ "type": "Feature", "properties": { "Plotnumber": 11, "n": 30, "mean_x": 10.866666666666667 }, "geometry": { "type": "MultiPoint", "coordinates": [ [ 102.608475, 12.210971 ] ] } },
{ "type": "Feature", "properties": { "Plotnumber": 12, "n": 32, "mean_x": 11.0 }, "geometry": { "type": "MultiPoint", "coordinates": [ [ 102.609185, 12.211907 ] ] } },
{ "type": "Feature", "properties": { "Plotnumber": 13, "n": 13, "mean_x": 11.923076923076923 }, "geometry": { "type": "MultiPoint", "coordinates": [ [ 102.609668, 12.212312 ] ] } },
{ "type": "Feature", "properties": { "Plotnumber": 14, "n": 16, "mean_x": 13.75 }, "geometry": { "type": "MultiPoint", "coordinates": [ [ 102.610214, 12.213114 ] ] } },
{ "type": "Feature", "properties": { "Plotnumber": 15, "n": 26, "mean_x": 8.3461538461538485 }, "geometry": { "type": "MultiPoint", "coordinates": [ [ 102.610486, 12.213837 ] ] } },
{ "type": "Feature", "properties": { "Plotnumber": 16, "n": 40, "mean_x": 6.825 }, "geometry": { "type": "MultiPoint", "coordinates": [ [ 102.610722, 12.214926 ] ] } },
{ "type": "Feature", "properties": { "Plotnumber": 17, "n": 33, "mean_x": 9.9393939393939394 }, "geometry": { "type": "MultiPoint", "coordinates": [ [ 102.610904, 12.215721 ] ] } },
{ "type": "Feature", "properties": { "Plotnumber": 18, "n": 24, "mean_x": 9.4583333333333339 }, "geometry": { "type": "MultiPoint", "coordinates": [ [ 102.610909, 12.216684 ] ] } },
{ "type": "Feature", "properties": { "Plotnumber": 19, "n": 16, "mean_x": 12.3125 }, "geometry": { "type": "MultiPoint", "coordinates": [ [ 102.6121, 12.217341 ] ] } },
{ "type": "Feature", "properties": { "Plotnumber": 20, "n": 27, "mean_x": 12.037037037037036 }, "geometry": { "type": "MultiPoint", "coordinates": [ [ 102.612455, 12.218203 ] ] } },
{ "type": "Feature", "properties": { "Plotnumber": 21, "n": 18, "mean_x": 13.0 }, "geometry": { "type": "MultiPoint", "coordinates": [ [ 102.61303, 12.21901 ] ] } },
{ "type": "Feature", "properties": { "Plotnumber": 22, "n": 33, "mean_x": 11.666666666666666 }, "geometry": { "type": "MultiPoint", "coordinates": [ [ 102.613667, 12.220464 ] ] } },
{ "type": "Feature", "properties": { "Plotnumber": 23, "n": 32, "mean_x": 11.875 }, "geometry": { "type": "MultiPoint", "coordinates": [ [ 102.614309, 12.221687 ] ] } },
{ "type": "Feature", "properties": { "Plotnumber": 24, "n": 29, "mean_x": 9.9655172413793096 }, "geometry": { "type": "MultiPoint", "coordinates": [ [ 102.615011, 12.222826 ] ] } },
{ "type": "Feature", "properties": { "Plotnumber": 25, "n": 36, "mean_x": 8.4722222222222214 }, "geometry": { "type": "MultiPoint", "coordinates": [ [ 102.498267, 12.131182 ] ] } },
{ "type": "Feature", "properties": { "Plotnumber": 26, "n": 16, "mean_x": 9.96875 }, "geometry": { "type": "MultiPoint", "coordinates": [ [ 102.498584, 12.131959 ] ] } },
{ "type": "Feature", "properties": { "Plotnumber": 27, "n": 49, "mean_x": 10.071428571428571 }, "geometry": { "type": "MultiPoint", "coordinates": [ [ 102.49914, 12.132757 ] ] } },
{ "type": "Feature", "properties": { "Plotnumber": 28, "n": 30, "mean_x": 6.7166666666666677 }, "geometry": { "type": "MultiPoint", "coordinates": [ [ 102.499658, 12.133571 ] ] } },
{ "type": "Feature", "properties": { "Plotnumber": 29, "n": 33, "mean_x": 8.1969696969696972 }, "geometry": { "type": "MultiPoint", "coordinates": [ [ 102.499954, 12.134412 ] ] } },
{ "type": "Feature", "properties": { "Plotnumber": 30, "n": 30, "mean_x": 11.65 }, "geometry": { "type": "MultiPoint", "coordinates": [ [ 102.500338, 12.135178 ] ] } },
{ "type": "Feature", "properties": { "Plotnumber": 31, "n": 45, "mean_x": 9.5444444444444443 }, "geometry": { "type": "MultiPoint", "coordinates": [ [ 102.500764, 12.136055 ] ] } },
{ "type": "Feature", "properties": { "Plotnumber": 32, "n": 17, "mean_x": 10.5 }, "geometry": { "type": "MultiPoint", "coordinates": [ [ 102.501275, 12.136719 ] ] } },
{ "type": "Feature", "properties": { "Plotnumber": 33, "n": 27, "mean_x": 11.888888888888889 }, "geometry": { "type": "MultiPoint", "coordinates": [ [ 102.501789, 12.137606 ] ] } },
{ "type": "Feature", "properties": { "Plotnumber": 34, "n": 28, "mean_x": 11.785714285714286 }, "geometry": { "type": "MultiPoint", "coordinates": [ [ 102.502056, 12.138359 ] ] } },
{ "type": "Feature", "properties": { "Plotnumber": 35, "n": 28, "mean_x": 12.160714285714286 }, "geometry": { "type": "MultiPoint", "coordinates": [ [ 102.502514, 12.139153 ] ] } },
{ "type": "Feature", "properties": { "Plotnumber": 36, "n": 29, "mean_x": 7.5 }, "geometry": { "type": "MultiPoint", "coordinates": [ [ 102.502896, 12.139939 ] ] } },
{ "type": "Feature", "properties": { "Plotnumber": 37, "n": 40, "mean_x": 5.925 }, "geometry": { "type": "MultiPoint", "coordinates": [ [ 102.503313, 12.140756 ] ] } },
{ "type": "Feature", "properties": { "Plotnumber": 38, "n": 38, "mean_x": 9.0263157894736832 }, "geometry": { "type": "MultiPoint", "coordinates": [ [ 102.50373, 12.141575 ] ] } },
{ "type": "Feature", "properties": { "Plotnumber": 39, "n": 38, "mean_x": 8.8815789473684212 }, "geometry": { "type": "MultiPoint", "coordinates": [ [ 102.504151, 12.142395 ] ] } },
{ "type": "Feature", "properties": { "Plotnumber": 40, "n": 32, "mean_x": 9.796875 }, "geometry": { "type": "MultiPoint", "coordinates": [ [ 102.504564, 12.143173 ] ] } },
{ "type": "Feature", "properties": { "Plotnumber": 41, "n": 61, "mean_x": 8.8524590163934445 }, "geometry": { "type": "MultiPoint", "coordinates": [ [ 102.504992, 12.143898 ] ] } },
{ "type": "Feature", "properties": { "Plotnumber": 42, "n": 18, "mean_x": 9.5 }, "geometry": { "type": "MultiPoint", "coordinates": [ [ 102.505454, 12.144767 ] ] } },
{ "type": "Feature", "properties": { "Plotnumber": 43, "n": 8, "mean_x": 5.5 }, "geometry": { "type": "MultiPoint", "coordinates": [ [ 102.505496, 12.145053 ] ] } },
{ "type": "Feature", "properties": { "Plotnumber": 44, "n": 10, "mean_x": 6.55 }, "geometry": { "type": "MultiPoint", "coordinates": [ [ 102.642518, 12.177902 ] ] } },
{ "type": "Feature", "properties": { "Plotnumber": 45, "n": 32, "mean_x": 11.153125 }, "geometry": { "type": "MultiPoint", "coordinates": [ [ 102.643283, 12.178284 ] ] } },
{ "type": "Feature", "properties": { "Plotnumber": 46, "n": 44, "mean_x": 8.9045454545454543 }, "geometry": { "type": "MultiPoint", "coordinates": [ [ 102.644122, 12.178796 ] ] } },
{ "type": "Feature", "properties": { "Plotnumber": 47, "n": 31, "mean_x": 4.1193548387096772 }, "geometry": { "type": "MultiPoint", "coordinates": [ [ 102.644947, 12.17919 ] ] } },
{ "type": "Feature", "properties": { "Plotnumber": 48, "n": 28, "mean_x": 4.0964285714285733 }, "geometry": { "type": "MultiPoint", "coordinates": [ [ 102.645636, 12.179733 ] ] } },
{ "type": "Feature", "properties": { "Plotnumber": 49, "n": 5, "mean_x": 2.18 }, "geometry": { "type": "MultiPoint", "coordinates": [ [ 102.646494, 12.180153 ] ] } },
{ "type": "Feature", "properties": { "Plotnumber": 50, "n": 14, "mean_x": 2.128571428571429 }, "geometry": { "type": "MultiPoint", "coordinates": [ [ 102.647251, 12.180618 ] ] } },
{ "type": "Feature", "properties": { "Plotnumber": 51, "n": 22, "mean_x": 3.4818181818181819 }, "geometry": { "type": "MultiPoint", "coordinates": [ [ 102.648024, 12.181118 ] ] } },
{ "type": "Feature", "properties": { "Plotnumber": 52, "n": 49, "mean_x": 10.512244897959183 }, "geometry": { "type": "MultiPoint", "coordinates": [ [ 102.648836, 12.181525 ] ] } },
{ "type": "Feature", "properties": { "Plotnumber": 53, "n": 36, "mean_x": 10.127777777777778 }, "geometry": { "type": "MultiPoint", "coordinates": [ [ 102.649633, 12.182113 ] ] } },
{ "type": "Feature", "properties": { "Plotnumber": 54, "n": 63, "mean_x": 10.595238095238093 }, "geometry": { "type": "MultiPoint", "coordinates": [ [ 102.650486, 12.182446 ] ] } },
{ "type": "Feature", "properties": { "Plotnumber": 55, "n": 10, "mean_x": 10.27 }, "geometry": { "type": "MultiPoint", "coordinates": [ [ 102.651233, 12.183015 ] ] } },
{ "type": "Feature", "properties": { "Plotnumber": 56, "n": 31, "mean_x": 9.6387096774193548 }, "geometry": { "type": "MultiPoint", "coordinates": [ [ 102.651916, 12.18348 ] ] } },
{ "type": "Feature", "properties": { "Plotnumber": 57, "n": 32, "mean_x": 8.25 }, "geometry": { "type": "MultiPoint", "coordinates": [ [ 102.652779, 12.183916 ] ] } },
{ "type": "Feature", "properties": { "Plotnumber": 58, "n": 25, "mean_x": 8.04 }, "geometry": { "type": "MultiPoint", "coordinates": [ [ 102.653519, 12.184382 ] ] } },
{ "type": "Feature", "properties": { "Plotnumber": 59, "n": 41, "mean_x": 9.4585365853658541 }, "geometry": { "type": "MultiPoint", "coordinates": [ [ 102.65424, 12.184794 ] ] } },
{ "type": "Feature", "properties": { "Plotnumber": 60, "n": 18, "mean_x": 7.0555555555555562 }, "geometry": { "type": "MultiPoint", "coordinates": [ [ 102.481695, 12.166359 ] ] } },
{ "type": "Feature", "properties": { "Plotnumber": 61, "n": 30, "mean_x": 9.1333333333333329 }, "geometry": { "type": "MultiPoint", "coordinates": [ [ 102.4849, 12.166138 ] ] } },
{ "type": "Feature", "properties": { "Plotnumber": 62, "n": 29, "mean_x": 9.7586206896551726 }, "geometry": { "type": "MultiPoint", "coordinates": [ [ 102.487983, 12.165883 ] ] } },
{ "type": "Feature", "properties": { "Plotnumber": 63, "n": 32, "mean_x": 10.375 }, "geometry": { "type": "MultiPoint", "coordinates": [ [ 102.489104, 12.166516 ] ] } },
{ "type": "Feature", "properties": { "Plotnumber": 64, "n": 29, "mean_x": 11.206896551724139 }, "geometry": { "type": "MultiPoint", "coordinates": [ [ 102.486232, 12.170016 ] ] } },
{ "type": "Feature", "properties": { "Plotnumber": 65, "n": 31, "mean_x": 10.483870967741936 }, "geometry": { "type": "MultiPoint", "coordinates": [ [ 102.486232, 12.170016 ] ] } },
{ "type": "Feature", "properties": { "Plotnumber": 66, "n": 37, "mean_x": 5.6081081081081079 }, "geometry": { "type": "MultiPoint", "coordinates": [ [ 102.486092, 12.17267 ] ] } },
{ "type": "Feature", "properties": { "Plotnumber": 67, "n": 13, "mean_x": 6.3846153846153859 }, "geometry": { "type": "MultiPoint", "coordinates": [ [ 102.487463, 12.172939 ] ] } },
{ "type": "Feature", "properties": { "Plotnumber": 68, "n": 21, "mean_x": 8.5714285714285712 }, "geometry": { "type": "MultiPoint", "coordinates": [ [ 102.488232, 12.170502 ] ] } },
{ "type": "Feature", "properties": { "Plotnumber": 69, "n": 27, "mean_x": 10.666666666666666 }, "geometry": { "type": "MultiPoint", "coordinates": [ [ 102.493278, 12.167161 ] ] } },
{ "type": "Feature", "properties": { "Plotnumber": 70, "n": 17, "mean_x": 13.647058823529411 }, "geometry": { "type": "MultiPoint", "coordinates": [ [ 102.493082, 12.16634 ] ] } },
{ "type": "Feature", "properties": { "Plotnumber": 71, "n": 28, "mean_x": 10.732142857142858 }, "geometry": { "type": "MultiPoint", "coordinates": [ [ 102.474595, 12.167857 ] ] } },
{ "type": "Feature", "properties": { "Plotnumber": 72, "n": 16, "mean_x": 11.625 }, "geometry": { "type": "MultiPoint", "coordinates": [ [ 102.473661, 12.163444 ] ] } },
{ "type": "Feature", "properties": { "Plotnumber": 73, "n": 38, "mean_x": 12.342105263157896 }, "geometry": { "type": "MultiPoint", "coordinates": [ [ 102.474631, 12.163925 ] ] } },
{ "type": "Feature", "properties": { "Plotnumber": 74, "n": 43, "mean_x": 12.046511627906977 }, "geometry": { "type": "MultiPoint", "coordinates": [ [ 102.475366, 12.164923 ] ] } },
{ "type": "Feature", "properties": { "Plotnumber": 75, "n": 12, "mean_x": 10.416666666666666 }, "geometry": { "type": "MultiPoint", "coordinates": [ [ 102.476688, 12.165688 ] ] } },
{ "type": "Feature", "properties": { "Plotnumber": 76, "n": 17, "mean_x": 13.764705882352942 }, "geometry": { "type": "MultiPoint", "coordinates": [ [ 102.478595, 12.163513 ] ] } },
{ "type": "Feature", "properties": { "Plotnumber": 77, "n": 24, "mean_x": 9.6666666666666661 }, "geometry": { "type": "MultiPoint", "coordinates": [ [ 102.480059, 12.164734 ] ] } },
{ "type": "Feature", "properties": { "Plotnumber": 78, "n": 9, "mean_x": 12.555555555555555 }, "geometry": { "type": "MultiPoint", "coordinates": [ [ 102.478352, 12.167976 ] ] } },
{ "type": "Feature", "properties": { "Plotnumber": 79, "n": 21, "mean_x": 12.285714285714286 }, "geometry": { "type": "MultiPoint", "coordinates": [ [ 102.479442, 12.166901 ] ] } },
{ "type": "Feature", "properties": { "Plotnumber": 80, "n": 20, "mean_x": 4.775 }, "geometry": { "type": "MultiPoint", "coordinates": [ [ 102.476222, 12.171232 ] ] } },
{ "type": "Feature", "properties": { "Plotnumber": 81, "n": 23, "mean_x": 14.173913043478262 }, "geometry": { "type": "MultiPoint", "coordinates": [ [ 102.470893, 12.177269 ] ] } },
{ "type": "Feature", "properties": { "Plotnumber": 82, "n": 13, "mean_x": 3.7692307692307692 }, "geometry": { "type": "MultiPoint", "coordinates": [ [ 102.629318, 12.193768 ] ] } },
{ "type": "Feature", "properties": { "Plotnumber": 83, "n": 25, "mean_x": 8.76 }, "geometry": { "type": "MultiPoint", "coordinates": [ [ 102.629318, 12.193768 ] ] } },
{ "type": "Feature", "properties": { "Plotnumber": 84, "n": 20, "mean_x": 11.95 }, "geometry": { "type": "MultiPoint", "coordinates": [ [ 102.640532, 12.193966 ] ] } },
{ "type": "Feature", "properties": { "Plotnumber": 85, "n": 31, "mean_x": 11.338709677419354 }, "geometry": { "type": "MultiPoint", "coordinates": [ [ 102.459337, 12.167393 ] ] } },
{ "type": "Feature", "properties": { "Plotnumber": 87, "n": 16, "mean_x": 10.875 }, "geometry": { "type": "MultiPoint", "coordinates": [ [ 102.463673, 12.171985 ] ] } },
{ "type": "Feature", "properties": { "Plotnumber": 88, "n": 26, "mean_x": 12.76923076923077 }, "geometry": { "type": "MultiPoint", "coordinates": [ [ 102.464262, 12.172204 ] ] } },
{ "type": "Feature", "properties": { "Plotnumber": 89, "n": 26, "mean_x": 8.2307692307692299 }, "geometry": { "type": "MultiPoint", "coordinates": [ [ 102.465124, 12.169032 ] ] } },
{ "type": "Feature", "properties": { "Plotnumber": 90, "n": 29, "mean_x": 14.586206896551724 }, "geometry": { "type": "MultiPoint", "coordinates": [ [ 102.470617, 12.173332 ] ] } },
{ "type": "Feature", "properties": { "Plotnumber": 91, "n": 27, "mean_x": 13.62962962962963 }, "geometry": { "type": "MultiPoint", "coordinates": [ [ 102.468882, 12.178464 ] ] } },
{ "type": "Feature", "properties": { "Plotnumber": 92, "n": 34, "mean_x": 11.029411764705882 }, "geometry": { "type": "MultiPoint", "coordinates": [ [ 102.472556, 12.182409 ] ] } },
{ "type": "Feature", "properties": { "Plotnumber": 93, "n": 51, "mean_x": 11.558823529411764 }, "geometry": { "type": "MultiPoint", "coordinates": [ [ 102.587581, 12.210386 ] ] } },
{ "type": "Feature", "properties": { "Plotnumber": 94, "n": 43, "mean_x": 7.0627906976744184 }, "geometry": { "type": "MultiPoint", "coordinates": [ [ 102.587788, 12.213226 ] ] } },
{ "type": "Feature", "properties": { "Plotnumber": 95, "n": 30, "mean_x": 8.7 }, "geometry": { "type": "MultiPoint", "coordinates": [ [ 102.583733, 12.217257 ] ] } },
{ "type": "Feature", "properties": { "Plotnumber": 96, "n": 26, "mean_x": 9.0384615384615383 }, "geometry": { "type": "MultiPoint", "coordinates": [ [ 102.58427, 12.213689 ] ] } },
{ "type": "Feature", "properties": { "Plotnumber": 97, "n": 18, "mean_x": 16.166666666666668 }, "geometry": { "type": "MultiPoint", "coordinates": [ [ 102.563278, 12.198841 ] ] } },
{ "type": "Feature", "properties": { "Plotnumber": 98, "n": 40, "mean_x": 4.8625 }, "geometry": { "type": "MultiPoint", "coordinates": [ [ 102.559638, 12.193972 ] ] } },
{ "type": "Feature", "properties": { "Plotnumber": 99, "n": 21, "mean_x": 7.9523809523809543 }, "geometry": { "type": "MultiPoint", "coordinates": [ [ 102.558484, 12.207915 ] ] } },
{ "type": "Feature", "properties": { "Plotnumber": 100, "n": 19, "mean_x": 7.352631578947368 }, "geometry": { "type": "MultiPoint", "coordinates": [ [ 102.562584, 12.211339 ] ] } },
{ "type": "Feature", "properties": { "Plotnumber": 101, "n": 29, "mean_x": 11.279310344827586 }, "geometry": { "type": "MultiPoint", "coordinates": [ [ 102.575609, 12.209478 ] ] } },
{ "type": "Feature", "properties": { "Plotnumber": 102, "n": 24, "mean_x": 10.645833333333334 }, "geometry": { "type": "MultiPoint", "coordinates": [ [ 102.575858, 12.20837 ] ] } },
{ "type": "Feature", "properties": { "Plotnumber": 103, "n": 28, "mean_x": 9.9821428571428577 }, "geometry": { "type": "MultiPoint", "coordinates": [ [ 102.577187, 12.204631 ] ] } },
{ "type": "Feature", "properties": { "Plotnumber": 104, "n": 17, "mean_x": 7.2058823529411784 }, "geometry": { "type": "MultiPoint", "coordinates": [ [ 102.582941, 12.205549 ] ] } },
{ "type": "Feature", "properties": { "Plotnumber": 105, "n": 22, "mean_x": 6.4318181818181817 }, "geometry": { "type": "MultiPoint", "coordinates": [ [ 102.585763, 12.207953 ] ] } },
{ "type": "Feature", "properties": { "Plotnumber": 106, "n": 12, "mean_x": 10.458333333333334 }, "geometry": { "type": "MultiPoint", "coordinates": [ [ 102.591421, 12.210679 ] ] } },
{ "type": "Feature", "properties": { "Plotnumber": 108, "n": 11, "mean_x": 10.272727272727273 }, "geometry": { "type": "MultiPoint", "coordinates": [ [ 102.592345, 12.220419 ] ] } },
{ "type": "Feature", "properties": { "Plotnumber": 110, "n": 30, "mean_x": 7.95 }, "geometry": { "type": "MultiPoint", "coordinates": [ [ 102.589204, 12.225959 ] ] } },
{ "type": "Feature", "properties": { "Plotnumber": 111, "n": 26, "mean_x": 7.4230769230769242 }, "geometry": { "type": "MultiPoint", "coordinates": [ [ 102.585597, 12.229525 ] ] } },
{ "type": "Feature", "properties": { "Plotnumber": 112, "n": 7, "mean_x": 7.0714285714285721 }, "geometry": { "type": "MultiPoint", "coordinates": [ [ 102.587197, 12.235109 ] ] } },
{ "type": "Feature", "properties": { "Plotnumber": 113, "n": 25, "mean_x": 8.12 }, "geometry": { "type": "MultiPoint", "coordinates": [ [ 102.647819, 12.173697 ] ] } },
{ "type": "Feature", "properties": { "Plotnumber": 114, "n": 16, "mean_x": 3.53125 }, "geometry": { "type": "MultiPoint", "coordinates": [ [ 102.650167, 12.174897 ] ] } },
{ "type": "Feature", "properties": { "Plotnumber": 115, "n": 25, "mean_x": 5.7 }, "geometry": { "type": "MultiPoint", "coordinates": [ [ 102.656883, 12.174364 ] ] } },
{ "type": "Feature", "properties": { "Plotnumber": 116, "n": 22, "mean_x": 3.4 }, "geometry": { "type": "MultiPoint", "coordinates": [ [ 102.658168, 12.172832 ] ] } },
{ "type": "Feature", "properties": { "Plotnumber": 117, "n": 20, "mean_x": 10.125 }, "geometry": { "type": "MultiPoint", "coordinates": [ [ 102.615211, 12.203207 ] ] } },
{ "type": "Feature", "properties": { "Plotnumber": 118, "n": 21, "mean_x": 8.7142857142857135 }, "geometry": { "type": "MultiPoint", "coordinates": [ [ 102.614546, 12.204579 ] ] } },
{ "type": "Feature", "properties": { "Plotnumber": 119, "n": 54, "mean_x": 10.25925925925926 }, "geometry": { "type": "MultiPoint", "coordinates": [ [ 102.622992, 12.203876 ] ] } },
{ "type": "Feature", "properties": { "Plotnumber": 120, "n": 2, "mean_x": 4.0 }, "geometry": { "type": "MultiPoint", "coordinates": [ [ 102.624284, 12.206528 ] ] } },
{ "type": "Feature", "properties": { "Plotnumber": 121, "n": 40, "mean_x": 7.8125 }, "geometry": { "type": "MultiPoint", "coordinates": [ [ 102.627987, 12.203343 ] ] } },
{ "type": "Feature", "properties": { "Plotnumber": 122, "n": 27, "mean_x": 9.1111111111111107 }, "geometry": { "type": "MultiPoint", "coordinates": [ [ 102.634867, 12.20345 ] ] } },
{ "type": "Feature", "properties": { "Plotnumber": 123, "n": 33, "mean_x": 7.8181818181818183 }, "geometry": { "type": "MultiPoint", "coordinates": [ [ 102.638216, 12.204544 ] ] } },
{ "type": "Feature", "properties": { "Plotnumber": 124, "n": 38, "mean_x": 8.4868421052631575 }, "geometry": { "type": "MultiPoint", "coordinates": [ [ 102.643703, 12.205246 ] ] } },
{ "type": "Feature", "properties": { "Plotnumber": 125, "n": 18, "mean_x": 9.0555555555555554 }, "geometry": { "type": "MultiPoint", "coordinates": [ [ 102.621469, 12.209902 ] ] } },
{ "type": "Feature", "properties": { "Plotnumber": 126, "n": 18, "mean_x": 12.833333333333334 }, "geometry": { "type": "MultiPoint", "coordinates": [ [ 102.621814, 12.21181 ] ] } },
{ "type": "Feature", "properties": { "Plotnumber": 127, "n": 12, "mean_x": 10.0 }, "geometry": { "type": "MultiPoint", "coordinates": [ [ 102.62714, 12.218381 ] ] } },
{ "type": "Feature", "properties": { "Plotnumber": 128, "n": 8, "mean_x": 9.375 }, "geometry": { "type": "MultiPoint", "coordinates": [ [ 102.641912, 12.194473 ] ] } },
{ "type": "Feature", "properties": { "Plotnumber": 129, "n": 16, "mean_x": 8.84375 }, "geometry": { "type": "MultiPoint", "coordinates": [ [ 102.635855, 12.196121 ] ] } },
{ "type": "Feature", "properties": { "Plotnumber": 130, "n": 19, "mean_x": 7.1842105263157903 }, "geometry": { "type": "MultiPoint", "coordinates": [ [ 102.630922, 12.195412 ] ] } },
{ "type": "Feature", "properties": { "Plotnumber": 131, "n": 15, "mean_x": 8.3666666666666671 }, "geometry": { "type": "MultiPoint", "coordinates": [ [ 102.625133, 12.196476 ] ] } },
{ "type": "Feature", "properties": { "Plotnumber": 132, "n": 9, "mean_x": 10.7 }, "geometry": { "type": "MultiPoint", "coordinates": [ [ 102.624016, 12.196576 ] ] } },
{ "type": "Feature", "properties": { "Plotnumber": 133, "n": 11, "mean_x": 11.0 }, "geometry": { "type": "MultiPoint", "coordinates": [ [ 102.620722, 12.195489 ] ] } },
{ "type": "Feature", "properties": { "Plotnumber": 134, "n": 12, "mean_x": 8.7916666666666661 }, "geometry": { "type": "MultiPoint", "coordinates": [ [ 102.633307, 12.186936 ] ] } },
{ "type": "Feature", "properties": { "Plotnumber": 135, "n": 25, "mean_x": 5.948 }, "geometry": { "type": "MultiPoint", "coordinates": [ [ 102.641067, 12.186745 ] ] } },
{ "type": "Feature", "properties": { "Plotnumber": 136, "n": 26, "mean_x": 7.5769230769230784 }, "geometry": { "type": "MultiPoint", "coordinates": [ [ 102.650475, 12.18637 ] ] } },
{ "type": "Feature", "properties": { "Plotnumber": 137, "n": 34, "mean_x": 7.9 }, "geometry": { "type": "MultiPoint", "coordinates": [ [ 102.651164, 12.18706 ] ] } },
{ "type": "Feature", "properties": { "Plotnumber": 138, "n": 38, "mean_x": 8.9342105263157894 }, "geometry": { "type": "MultiPoint", "coordinates": [ [ 102.646857, 12.18755 ] ] } },
{ "type": "Feature", "properties": { "Plotnumber": 139, "n": 22, "mean_x": 9.5454545454545432 }, "geometry": { "type": "MultiPoint", "coordinates": [ [ 102.638198, 12.183505 ] ] } },
{ "type": "Feature", "properties": { "Plotnumber": 140, "n": 11, "mean_x": 3.5909090909090908 }, "geometry": { "type": "MultiPoint", "coordinates": [ [ 102.642679, 12.184477 ] ] } },
{ "type": "Feature", "properties": { "Plotnumber": 141, "n": 29, "mean_x": 13.068965517241381 }, "geometry": { "type": "MultiPoint", "coordinates": [ [ 102.642095, 12.180138 ] ] } },
{ "type": "Feature", "properties": { "Plotnumber": 142, "n": 37, "mean_x": 10.702702702702704 }, "geometry": { "type": "MultiPoint", "coordinates": [ [ 102.644012, 12.181749 ] ] } },
{ "type": "Feature", "properties": { "Plotnumber": 143, "n": 32, "mean_x": 10.21875 }, "geometry": { "type": "MultiPoint", "coordinates": [ [ 102.645305, 12.176616 ] ] } },
{ "type": "Feature", "properties": { "Plotnumber": 144, "n": 19, "mean_x": 3.9 }, "geometry": { "type": "MultiPoint", "coordinates": [ [ 102.647406, 12.178333 ] ] } },
{ "type": "Feature", "properties": { "Plotnumber": 145, "n": 11, "mean_x": 3.1 }, "geometry": { "type": "MultiPoint", "coordinates": [ [ 102.650023, 12.17901 ] ] } },
{ "type": "Feature", "properties": { "Plotnumber": 146, "n": 21, "mean_x": 7.0095238095238104 }, "geometry": { "type": "MultiPoint", "coordinates": [ [ 102.661364, 12.175652 ] ] } },
{ "type": "Feature", "properties": { "Plotnumber": 147, "n": 24, "mean_x": 9.2625 }, "geometry": { "type": "MultiPoint", "coordinates": [ [ 102.661364, 12.175652 ] ] } },
{ "type": "Feature", "properties": { "Plotnumber": 148, "n": 5, "mean_x": 6.24 }, "geometry": { "type": "MultiPoint", "coordinates": [ [ 102.667081, 12.158728 ] ] } },
{ "type": "Feature", "properties": { "Plotnumber": 149, "n": 20, "mean_x": 8.29 }, "geometry": { "type": "MultiPoint", "coordinates": [ [ 102.665855, 12.160872 ] ] } },
{ "type": "Feature", "properties": { "Plotnumber": 150, "n": 20, "mean_x": 8.065 }, "geometry": { "type": "MultiPoint", "coordinates": [ [ 102.664816, 12.159281 ] ] } },
{ "type": "Feature", "properties": { "Plotnumber": 151, "n": 4, "mean_x": 7.25 }, "geometry": { "type": "MultiPoint", "coordinates": [ [ 102.666976, 12.17311 ] ] } },
{ "type": "Feature", "properties": { "Plotnumber": 152, "n": 18, "mean_x": 7.0833333333333339 }, "geometry": { "type": "MultiPoint", "coordinates": [ [ 102.665929, 12.176005 ] ] } },
{ "type": "Feature", "properties": { "Plotnumber": 153, "n": 8, "mean_x": 9.8125 }, "geometry": { "type": "MultiPoint", "coordinates": [ [ 102.636499, 12.211059 ] ] } },
{ "type": "Feature", "properties": { "Plotnumber": 154, "n": 14, "mean_x": 11.785714285714286 }, "geometry": { "type": "MultiPoint", "coordinates": [ [ 102.648049, 12.158234 ] ] } },
{ "type": "Feature", "properties": { "Plotnumber": 155, "n": 11, "mean_x": 12.0 }, "geometry": { "type": "MultiPoint", "coordinates": [ [ 102.646805, 12.160013 ] ] } },
{ "type": "Feature", "properties": { "Plotnumber": 156, "n": 9, "mean_x": 10.255555555555556 }, "geometry": { "type": "MultiPoint", "coordinates": [ [ 102.648138, 12.160285 ] ] } },
{ "type": "Feature", "properties": { "Plotnumber": 157, "n": 7, "mean_x": 8.5428571428571445 }, "geometry": { "type": "MultiPoint", "coordinates": [ [ 102.656873, 12.15711 ] ] } },
{ "type": "Feature", "properties": { "Plotnumber": 158, "n": 5, "mean_x": 6.3 }, "geometry": { "type": "MultiPoint", "coordinates": [ [ 102.662554, 12.154487 ] ] } },
{ "type": "Feature", "properties": { "Plotnumber": 159, "n": 8, "mean_x": 11.375 }, "geometry": { "type": "MultiPoint", "coordinates": [ [ 102.649466, 12.165756 ] ] } },
{ "type": "Feature", "properties": { "Plotnumber": 160, "n": 8, "mean_x": 8.875 }, "geometry": { "type": "MultiPoint", "coordinates": [ [ 102.651767, 12.165878 ] ] } },
{ "type": "Feature", "properties": { "Plotnumber": 161, "n": 12, "mean_x": 8.225 }, "geometry": { "type": "MultiPoint", "coordinates": [ [ 102.654588, 12.169347 ] ] } },
{ "type": "Feature", "properties": { "Plotnumber": 162, "n": 12, "mean_x": 9.0916666666666668 }, "geometry": { "type": "MultiPoint", "coordinates": [ [ 102.65253, 12.171076 ] ] } },
{ "type": "Feature", "properties": { "Plotnumber": 163, "n": 14, "mean_x": 10.642857142857142 }, "geometry": { "type": "MultiPoint", "coordinates": [ [ 102.64843, 12.170787 ] ] } },
{ "type": "Feature", "properties": { "Plotnumber": 165, "n": 21, "mean_x": 12.428571428571429 }, "geometry": { "type": "MultiPoint", "coordinates": [ [ 102.472602, 12.157979 ] ] } },
{ "type": "Feature", "properties": { "Plotnumber": 166, "n": 2, "mean_x": 7.5 }, "geometry": { "type": "MultiPoint", "coordinates": [ [ 102.473932, 12.156073 ] ] } },
{ "type": "Feature", "properties": { "Plotnumber": 167, "n": 33, "mean_x": 10.727272727272727 }, "geometry": { "type": "MultiPoint", "coordinates": [ [ 102.471814, 12.151705 ] ] } },
{ "type": "Feature", "properties": { "Plotnumber": 168, "n": 36, "mean_x": 12.777777777777779 }, "geometry": { "type": "MultiPoint", "coordinates": [ [ 102.473536, 12.147 ] ] } },
{ "type": "Feature", "properties": { "Plotnumber": 169, "n": 35, "mean_x": 10.0 }, "geometry": { "type": "MultiPoint", "coordinates": [ [ 102.475589, 12.146166 ] ] } },
{ "type": "Feature", "properties": { "Plotnumber": 170, "n": 27, "mean_x": 13.203703703703704 }, "geometry": { "type": "MultiPoint", "coordinates": [ [ 102.474726, 12.144437 ] ] } },
{ "type": "Feature", "properties": { "Plotnumber": 171, "n": 16, "mean_x": 15.4375 }, "geometry": { "type": "MultiPoint", "coordinates": [ [ 102.472732, 12.143995 ] ] } },
{ "type": "Feature", "properties": { "Plotnumber": 172, "n": 26, "mean_x": 11.923076923076923 }, "geometry": { "type": "MultiPoint", "coordinates": [ [ 102.469582, 12.148223 ] ] } },
{ "type": "Feature", "properties": { "Plotnumber": 173, "n": 21, "mean_x": 14.0 }, "geometry": { "type": "MultiPoint", "coordinates": [ [ 102.467892, 12.153723 ] ] } },
{ "type": "Feature", "properties": { "Plotnumber": 174, "n": 14, "mean_x": 14.928571428571429 }, "geometry": { "type": "MultiPoint", "coordinates": [ [ 102.469978, 12.159111 ] ] } },
{ "type": "Feature", "properties": { "Plotnumber": 175, "n": 19, "mean_x": 3.763157894736842 }, "geometry": { "type": "MultiPoint", "coordinates": [ [ 102.4807, 12.157043 ] ] } },
{ "type": "Feature", "properties": { "Plotnumber": 176, "n": 36, "mean_x": 14.888888888888889 }, "geometry": { "type": "MultiPoint", "coordinates": [ [ 102.483513, 12.156928 ] ] } },
{ "type": "Feature", "properties": { "Plotnumber": 177, "n": 50, "mean_x": 11.32 }, "geometry": { "type": "MultiPoint", "coordinates": [ [ 102.477447, 12.151786 ] ] } },
{ "type": "Feature", "properties": { "Plotnumber": 178, "n": 22, "mean_x": 14.181818181818182 }, "geometry": { "type": "MultiPoint", "coordinates": [ [ 102.481504, 12.149739 ] ] } },
{ "type": "Feature", "properties": { "Plotnumber": 179, "n": 34, "mean_x": 13.044117647058824 }, "geometry": { "type": "MultiPoint", "coordinates": [ [ 102.482281, 12.146056 ] ] } },
{ "type": "Feature", "properties": { "Plotnumber": 180, "n": 27, "mean_x": 14.962962962962964 }, "geometry": { "type": "MultiPoint", "coordinates": [ [ 102.482305, 12.142379 ] ] } },
{ "type": "Feature", "properties": { "Plotnumber": 181, "n": 53, "mean_x": 10.622641509433961 }, "geometry": { "type": "MultiPoint", "coordinates": [ [ 102.487149, 12.15989 ] ] } },
{ "type": "Feature", "properties": { "Plotnumber": 182, "n": 24, "mean_x": 12.25 }, "geometry": { "type": "MultiPoint", "coordinates": [ [ 102.484672, 12.147333 ] ] } },
{ "type": "Feature", "properties": { "Plotnumber": 183, "n": 9, "mean_x": 11.444444444444445 }, "geometry": { "type": "MultiPoint", "coordinates": [ [ 102.486347, 12.152773 ] ] } },
{ "type": "Feature", "properties": { "Plotnumber": 184, "n": 34, "mean_x": 13.058823529411764 }, "geometry": { "type": "MultiPoint", "coordinates": [ [ 102.484692, 12.153084 ] ] } },
{ "type": "Feature", "properties": { "Plotnumber": 185, "n": 24, "mean_x": 17.666666666666668 }, "geometry": { "type": "MultiPoint", "coordinates": [ [ 102.492459, 12.160972 ] ] } },
{ "type": "Feature", "properties": { "Plotnumber": 186, "n": 30, "mean_x": 12.633333333333333 }, "geometry": { "type": "MultiPoint", "coordinates": [ [ 102.490662, 12.156441 ] ] } },
{ "type": "Feature", "properties": { "Plotnumber": 187, "n": 27, "mean_x": 2.4481481481481482 }, "geometry": { "type": "MultiPoint", "coordinates": [ [ 102.494659, 12.155944 ] ] } },
{ "type": "Feature", "properties": { "Plotnumber": 188, "n": 26, "mean_x": 9.7307692307692299 }, "geometry": { "type": "MultiPoint", "coordinates": [ [ 102.497275, 12.148958 ] ] } },
{ "type": "Feature", "properties": { "Plotnumber": 189, "n": 24, "mean_x": 19.083333333333332 }, "geometry": { "type": "MultiPoint", "coordinates": [ [ 102.495099, 12.150994 ] ] } },
{ "type": "Feature", "properties": { "Plotnumber": 190, "n": 35, "mean_x": 14.685714285714287 }, "geometry": { "type": "MultiPoint", "coordinates": [ [ 102.491148, 12.151859 ] ] } },
{ "type": "Feature", "properties": { "Plotnumber": 191, "n": 49, "mean_x": 13.0 }, "geometry": { "type": "MultiPoint", "coordinates": [ [ 102.489966, 12.148543 ] ] } },
{ "type": "Feature", "properties": { "Plotnumber": 192, "n": 40, "mean_x": 13.125 }, "geometry": { "type": "MultiPoint", "coordinates": [ [ 102.48788, 12.146751 ] ] } },
{ "type": "Feature", "properties": { "Plotnumber": 193, "n": 45, "mean_x": 11.195555555555556 }, "geometry": { "type": "MultiPoint", "coordinates": [ [ 102.489447, 12.141589 ] ] } },
{ "type": "Feature", "properties": { "Plotnumber": 194, "n": 49, "mean_x": 10.683673469387756 }, "geometry": { "type": "MultiPoint", "coordinates": [ [ 102.493383, 12.141823 ] ] } },
{ "type": "Feature", "properties": { "Plotnumber": 195, "n": 48, "mean_x": 11.583333333333334 }, "geometry": { "type": "MultiPoint", "coordinates": [ [ 102.494549, 12.144119 ] ] } },
{ "type": "Feature", "properties": { "Plotnumber": 196, "n": 60, "mean_x": 13.25 }, "geometry": { "type": "MultiPoint", "coordinates": [ [ 102.493239, 12.138069 ] ] } },
{ "type": "Feature", "properties": { "Plotnumber": 197, "n": 30, "mean_x": 7.4833333333333343 }, "geometry": { "type": "MultiPoint", "coordinates": [ [ 102.489794, 12.138097 ] ] } },
{ "type": "Feature", "properties": { "Plotnumber": 198, "n": 25, "mean_x": 12.0 }, "geometry": { "type": "MultiPoint", "coordinates": [ [ 102.488525, 12.135525 ] ] } },
{ "type": "Feature", "properties": { "Plotnumber": 199, "n": 45, "mean_x": 13.622222222222222 }, "geometry": { "type": "MultiPoint", "coordinates": [ [ 102.489034, 12.136623 ] ] } },
{ "type": "Feature", "properties": { "Plotnumber": 200, "n": 22, "mean_x": 13.363636363636363 }, "geometry": { "type": "MultiPoint", "coordinates": [ [ 102.483113, 12.137514 ] ] } },
{ "type": "Feature", "properties": { "Plotnumber": 201, "n": 33, "mean_x": 11.212121212121213 }, "geometry": { "type": "MultiPoint", "coordinates": [ [ 102.51041, 12.127546 ] ] } },
{ "type": "Feature", "properties": { "Plotnumber": 202, "n": 42, "mean_x": 12.416666666666666 }, "geometry": { "type": "MultiPoint", "coordinates": [ [ 102.510909, 12.130592 ] ] } },
{ "type": "Feature", "properties": { "Plotnumber": 203, "n": 41, "mean_x": 10.707317073170731 }, "geometry": { "type": "MultiPoint", "coordinates": [ [ 102.513483, 12.128906 ] ] } },
{ "type": "Feature", "properties": { "Plotnumber": 204, "n": 36, "mean_x": 14.166666666666666 }, "geometry": { "type": "MultiPoint", "coordinates": [ [ 102.514667, 12.131465 ] ] } },
{ "type": "Feature", "properties": { "Plotnumber": 205, "n": 42, "mean_x": 7.7142857142857144 }, "geometry": { "type": "MultiPoint", "coordinates": [ [ 102.514633, 12.135353 ] ] } },
{ "type": "Feature", "properties": { "Plotnumber": 206, "n": 26, "mean_x": 17.5 }, "geometry": { "type": "MultiPoint", "coordinates": [ [ 102.518997, 12.131149 ] ] } },
{ "type": "Feature", "properties": { "Plotnumber": 207, "n": 51, "mean_x": 9.6764705882352935 }, "geometry": { "type": "MultiPoint", "coordinates": [ [ 102.516315, 12.127319 ] ] } },
{ "type": "Feature", "properties": { "Plotnumber": 208, "n": 41, "mean_x": 11.182926829268293 }, "geometry": { "type": "MultiPoint", "coordinates": [ [ 102.513392, 12.126499 ] ] } },
{ "type": "Feature", "properties": { "Plotnumber": 209, "n": 21, "mean_x": 8.3571428571428577 }, "geometry": { "type": "MultiPoint", "coordinates": [ [ 102.549783, 12.189498 ] ] } },
{ "type": "Feature", "properties": { "Plotnumber": 210, "n": 29, "mean_x": 8.6206896551724164 }, "geometry": { "type": "MultiPoint", "coordinates": [ [ 102.551796, 12.193664 ] ] } },
{ "type": "Feature", "properties": { "Plotnumber": 211, "n": 14, "mean_x": 12.678571428571429 }, "geometry": { "type": "MultiPoint", "coordinates": [ [ 102.542174, 12.2063 ] ] } },
{ "type": "Feature", "properties": { "Plotnumber": 212, "n": 33, "mean_x": 9.0 }, "geometry": { "type": "MultiPoint", "coordinates": [ [ 102.535157, 12.215565 ] ] } },
{ "type": "Feature", "properties": { "Plotnumber": 213, "n": 40, "mean_x": 13.35 }, "geometry": { "type": "MultiPoint", "coordinates": [ [ 102.513071, 12.161599 ] ] } },
{ "type": "Feature", "properties": { "Plotnumber": 214, "n": 26, "mean_x": 13.461538461538462 }, "geometry": { "type": "MultiPoint", "coordinates": [ [ 102.515681, 12.163959 ] ] } },
{ "type": "Feature", "properties": { "Plotnumber": 215, "n": 19, "mean_x": 10.157894736842104 }, "geometry": { "type": "MultiPoint", "coordinates": [ [ 102.507782, 12.157409 ] ] } },
{ "type": "Feature", "properties": { "Plotnumber": 216, "n": 19, "mean_x": 15.631578947368421 }, "geometry": { "type": "MultiPoint", "coordinates": [ [ 102.504497, 12.159918 ] ] } },
{ "type": "Feature", "properties": { "Plotnumber": 217, "n": 21, "mean_x": 10.047619047619047 }, "geometry": { "type": "MultiPoint", "coordinates": [ [ 102.500515, 12.158377 ] ] } },
{ "type": "Feature", "properties": { "Plotnumber": 218, "n": 33, "mean_x": 15.454545454545457 }, "geometry": { "type": "MultiPoint", "coordinates": [ [ 102.49669, 12.161479 ] ] } },
{ "type": "Feature", "properties": { "Plotnumber": 219, "n": 21, "mean_x": 9.9047619047619069 }, "geometry": { "type": "MultiPoint", "coordinates": [ [ 102.520366, 12.123455 ] ] } },
{ "type": "Feature", "properties": { "Plotnumber": 220, "n": 22, "mean_x": 18.272727272727273 }, "geometry": { "type": "MultiPoint", "coordinates": [ [ 102.520046, 12.127225 ] ] } },
{ "type": "Feature", "properties": { "Plotnumber": 221, "n": 42, "mean_x": 8.9047619047619069 }, "geometry": { "type": "MultiPoint", "coordinates": [ [ 102.523668, 12.131394 ] ] } },
{ "type": "Feature", "properties": { "Plotnumber": 222, "n": 25, "mean_x": 17.8 }, "geometry": { "type": "MultiPoint", "coordinates": [ [ 102.508402, 12.135918 ] ] } },
{ "type": "Feature", "properties": { "Plotnumber": 223, "n": 49, "mean_x": 11.877551020408163 }, "geometry": { "type": "MultiPoint", "coordinates": [ [ 102.510301, 12.139431 ] ] } },
{ "type": "Feature", "properties": { "Plotnumber": 224, "n": 40, "mean_x": 10.5375 }, "geometry": { "type": "MultiPoint", "coordinates": [ [ 102.511099, 12.141961 ] ] } },
{ "type": "Feature", "properties": { "Plotnumber": 225, "n": 35, "mean_x": 5.2857142857142856 }, "geometry": { "type": "MultiPoint", "coordinates": [ [ 102.46155, 12.174932 ] ] } },
{ "type": "Feature", "properties": { "Plotnumber": 226, "n": 34, "mean_x": 4.9705882352941178 }, "geometry": { "type": "MultiPoint", "coordinates": [ [ 102.461831, 12.175624 ] ] } },
{ "type": "Feature", "properties": { "Plotnumber": 227, "n": 14, "mean_x": 3.535714285714286 }, "geometry": { "type": "MultiPoint", "coordinates": [ [ 102.462164, 12.17645 ] ] } },
{ "type": "Feature", "properties": { "Plotnumber": 228, "n": 33, "mean_x": 3.4242424242424239 }, "geometry": { "type": "MultiPoint", "coordinates": [ [ 102.462491, 12.177294 ] ] } },
{ "type": "Feature", "properties": { "Plotnumber": 229, "n": 11, "mean_x": 2.454545454545455 }, "geometry": { "type": "MultiPoint", "coordinates": [ [ 102.462836, 12.178093 ] ] } },
{ "type": "Feature", "properties": { "Plotnumber": 230, "n": 19, "mean_x": 3.38421052631579 }, "geometry": { "type": "MultiPoint", "coordinates": [ [ 102.463447, 12.179817 ] ] } },
{ "type": "Feature", "properties": { "Plotnumber": 231, "n": 23, "mean_x": 7.2608695652173916 }, "geometry": { "type": "MultiPoint", "coordinates": [ [ 102.463687, 12.180681 ] ] } },
{ "type": "Feature", "properties": { "Plotnumber": 232, "n": 48, "mean_x": 7.4791666666666679 }, "geometry": { "type": "MultiPoint", "coordinates": [ [ 102.464065, 12.181404 ] ] } },
{ "type": "Feature", "properties": { "Plotnumber": 233, "n": 22, "mean_x": 12.090909090909092 }, "geometry": { "type": "MultiPoint", "coordinates": [ [ 102.46444, 12.182311 ] ] } },
{ "type": "Feature", "properties": { "Plotnumber": 234, "n": 28, "mean_x": 14.392857142857142 }, "geometry": { "type": "MultiPoint", "coordinates": [ [ 102.464025, 12.183226 ] ] } },
{ "type": "Feature", "properties": { "Plotnumber": 235, "n": 22, "mean_x": 11.045454545454543 }, "geometry": { "type": "MultiPoint", "coordinates": [ [ 102.467651, 12.175566 ] ] } },
{ "type": "Feature", "properties": { "Plotnumber": 236, "n": 17, "mean_x": 13.235294117647058 }, "geometry": { "type": "MultiPoint", "coordinates": [ [ 102.467067, 12.175357 ] ] } },
{ "type": "Feature", "properties": { "Plotnumber": 237, "n": 43, "mean_x": 5.4883720930232558 }, "geometry": { "type": "MultiPoint", "coordinates": [ [ 102.46657, 12.176124 ] ] } },
{ "type": "Feature", "properties": { "Plotnumber": 238, "n": 26, "mean_x": 4.4038461538461542 }, "geometry": { "type": "MultiPoint", "coordinates": [ [ 102.464697, 12.177944 ] ] } },
{ "type": "Feature", "properties": { "Plotnumber": 239, "n": 8, "mean_x": 3.525 }, "geometry": { "type": "MultiPoint", "coordinates": [ [ 102.463905, 12.178958 ] ] } },
{ "type": "Feature", "properties": { "Plotnumber": 240, "n": 19, "mean_x": 5.0631578947368423 }, "geometry": { "type": "MultiPoint", "coordinates": [ [ 102.461178, 12.18086 ] ] } },
{ "type": "Feature", "properties": { "Plotnumber": 241, "n": 25, "mean_x": 5.768 }, "geometry": { "type": "MultiPoint", "coordinates": [ [ 102.46056, 12.181562 ] ] } },
{ "type": "Feature", "properties": { "Plotnumber": 242, "n": 44, "mean_x": 10.818181818181818 }, "geometry": { "type": "MultiPoint", "coordinates": [ [ 102.460029, 12.18195 ] ] } },
{ "type": "Feature", "properties": { "Plotnumber": 243, "n": 21, "mean_x": 9.6666666666666661 }, "geometry": { "type": "MultiPoint", "coordinates": [ [ 102.467113, 12.176782 ] ] } },
{ "type": "Feature", "properties": { "Plotnumber": 244, "n": 31, "mean_x": 16.129032258064516 }, "geometry": { "type": "MultiPoint", "coordinates": [ [ 102.467767, 12.176547 ] ] } },
{ "type": "Feature", "properties": { "Plotnumber": 245, "n": 28, "mean_x": 9.6071428571428577 }, "geometry": { "type": "MultiPoint", "coordinates": [ [ 102.466693, 12.178869 ] ] } },
{ "type": "Feature", "properties": { "Plotnumber": 246, "n": 26, "mean_x": 14.653846153846153 }, "geometry": { "type": "MultiPoint", "coordinates": [ [ 102.467031, 12.179291 ] ] } },
{ "type": "Feature", "properties": { "Plotnumber": 247, "n": 28, "mean_x": 5.0357142857142856 }, "geometry": { "type": "MultiPoint", "coordinates": [ [ 102.465348, 12.179259 ] ] } },
{ "type": "Feature", "properties": { "Plotnumber": 248, "n": 28, "mean_x": 5.25 }, "geometry": { "type": "MultiPoint", "coordinates": [ [ 102.464785, 12.180036 ] ] } },
{ "type": "Feature", "properties": { "Plotnumber": 249, "n": 29, "mean_x": 4.1379310344827589 }, "geometry": { "type": "MultiPoint", "coordinates": [ [ 102.465166, 12.174815 ] ] } },
{ "type": "Feature", "properties": { "Plotnumber": 250, "n": 29, "mean_x": 9.1206896551724146 }, "geometry": { "type": "MultiPoint", "coordinates": [ [ 102.466614, 12.174298 ] ] } },
{ "type": "Feature", "properties": { "Plotnumber": 251, "n": 21, "mean_x": 9.3809523809523814 }, "geometry": { "type": "MultiPoint", "coordinates": [ [ 102.463444, 12.181086 ] ] } },
{ "type": "Feature", "properties": { "Plotnumber": 252, "n": 18, "mean_x": 10.555555555555555 }, "geometry": { "type": "MultiPoint", "coordinates": [ [ 102.462995, 12.181694 ] ] } },
{ "type": "Feature", "properties": { "Plotnumber": 253, "n": 29, "mean_x": 13.896551724137931 }, "geometry": { "type": "MultiPoint", "coordinates": [ [ 102.463857, 12.182587 ] ] } },
{ "type": "Feature", "properties": { "Plotnumber": 254, "n": 29, "mean_x": 8.3793103448275854 }, "geometry": { "type": "MultiPoint", "coordinates": [ [ 102.462422, 12.182 ] ] } },
{ "type": "Feature", "properties": { "Plotnumber": 255, "n": 29, "mean_x": 8.2931034482758612 }, "geometry": { "type": "MultiPoint", "coordinates": [ [ 102.46014, 12.180564 ] ] } }
]
}
